GSAT0215 (GALILEO 19)   
1 43055U 17079A   26164.49612067  .00000062  00000+0  00000+0 0  9991
2 43055  55.0744 221.6084 0003011 262.8023  97.2638  1.70474538 52927
GSAT0216 (GALILEO 20)   
1 43056U 17079B   26164.78727197  .00000061  00000+0  00000+0 0  9994
2 43056  55.0743 221.6004 0004468 275.6764  84.3739  1.70474522 52944
GSAT0217 (GALILEO 21)   
1 43057U 17079C   26165.00806613  .00000061  00000+0  00000+0 0  9992
2 43057  55.0725 221.5922 0004743 283.1918  76.8570  1.70474083 52934
GSAT0218 (GALILEO 22)   
1 43058U 17079D   26164.05497403  .00000061  00000+0  00000+0 0  9990
2 43058  55.0728 221.6159 0005024 272.4694  87.5720  1.70474471 52944
BEIDOU-3 M7             
1 43107U 18003A   26163.51786711 -.00000069  00000+0  00000+0 0  9995
2 43107  54.3326 302.4785 0004908  93.1066 266.9324  1.86228217 57264
BEIDOU-3 M8             
1 43108U 18003B   26162.92575939 -.00000068  00000+0  00000+0 0  9997
2 43108  54.3258 302.4809 0002464 263.1764  96.7794  1.86231100 57260
BEIDOU-3 M4             
1 43207U 18018A   26164.97958670 -.00000054  00000+0  00000+0 0  9992
2 43207  56.6477  63.2545 0007797  19.0870 340.9711  1.86230844 56689
BEIDOU-3 M3             
1 43208U 18018B   26164.50910292 -.00000055  00000+0  00000+0 0  9991
2 43208  56.6473  63.2743 0008681 341.1223  18.8726  1.86230755 56677
BEIDOU-3 M9             
1 43245U 18029A   26163.65297359 -.00000068  00000+0  00000+0 0  9995
2 43245  54.1986 300.1083 0000893 146.7724 213.2166  1.86228237 55818
BEIDOU-3 M10            
1 43246U 18029B   26163.58735657 -.00000068  00000+0  00000+0 0  9996
2 43246  54.1961 300.1366 0003902  39.2234 320.7882  1.86229309 55799
IRNSS-1I                
1 43286U 18035A   26164.84387999  .00000068  00000+0  00000+0 0  9998
2 43286  28.7469  74.2484 0017907 181.4936   5.0540  1.00271450 30047
COSMOS 2527 [GLONASS-M] 
1 43508U 18053A   26161.98424862 -.00000028  00000+0  00000+0 0  9995
2 43508  65.5740  74.1146 0007392 241.2390 118.7028  2.13102302 62148
BEIDOU-2 IGSO-7         
1 43539U 18057A   26165.42520594 -.00000002  00000+0  00000+0 0  9997
2 43539  55.1941 163.0822 0104977 237.9873 124.9006  1.00251916 29109
GSAT0221 (GALILEO 25)   
1 43564U 18060A   26161.61257961 -.00000063  00000+0  00000+0 0  9998
2 43564  57.1738 341.9578 0002678 307.2326  52.7584  1.70475913 49054
GSAT0222 (GALILEO 26)   
1 43565U 18060B   26163.00539104 -.00000067  00000+0  00000+0 0  9990
2 43565  57.1760 341.9240 0001918 251.7129 108.2786  1.70475625 49125
GSAT0219 (GALILEO 23)   
1 43566U 18060C   26164.39944955 -.00000073  00000+0  00000+0 0  9995
2 43566  57.1735 341.8876 0002132 327.1782  32.8158  1.70475845 49123
GSAT0220 (GALILEO 24)   
1 43567U 18060D   26162.86068590 -.00000067  00000+0  00000+0 0  9991
2 43567  57.1774 341.9298 0002252 315.5047  44.4900  1.70475609 49081
BEIDOU-3 M5             
1 43581U 18062A   26164.34844029  .00000114  00000+0  00000+0 0  9995
2 43581  54.0854 182.4348 0005555 288.6407  71.3585  1.86228409 53562
BEIDOU-3 M6             
1 43582U 18062B   26164.74884894  .00000109  00000+0  00000+0 0  9998
2 43582  54.0851 182.4102 0004919   9.3992 350.6673  1.86227682 53572
BEIDOU-3 M12            
1 43602U 18067A   26163.61333926  .00000122  00000+0  00000+0 0  9991
2 43602  54.1800 181.1956 0007719  30.1109 329.9936  1.86227819 53030
BEIDOU-3 M11            
1 43603U 18067B   26165.35925920  .00000099  00000+0  00000+0 0  9999
2 43603  54.1775 181.0999 0004437  12.9310 347.1309  1.86227183 53090
BEIDOU-3 M13            
1 43622U 18072A   26164.77714546 -.00000055  00000+0  00000+0 0  9994
2 43622  56.6216  62.7728 0007357 328.6161  31.3689  1.86231394 52594
BEIDOU-3 M14            
1 43623U 18072B   26164.64258037 -.00000055  00000+0  00000+0 0  9999
2 43623  56.6230  62.7716 0006155 359.5905   0.4373  1.86231409 52585
BEIDOU-3 M16            
1 43647U 18078A   26164.26100350 -.00000068  00000+0  00000+0 0  9997
2 43647  54.0937 300.1238 0007221  40.8616 319.1754  1.86232170 52083
BEIDOU-3 M15            
1 43648U 18078B   26163.85334519 -.00000068  00000+0  00000+0 0  9998
2 43648  54.0899 300.1384 0004241  57.4924 302.5317  1.86232293 52096
BEIDOU-3 G1             
1 43683U 18085A   26165.54786073 -.00000104  00000+0  00000+0 0  9990
2 43683   2.8602  97.4587 0008086 348.8285 173.7538  1.00270502 28038
COSMOS 2529 [GLONASS-M] 
1 43687U 18086A   26164.42711558  .00000114  00000+0  00000+0 0  9997
2 43687  64.2947 192.7215 0011980 256.3920 103.5507  2.13102077 59205
BEIDOU-3 M17            
1 43706U 18093A   26161.46407593  .00000127  00000+0  00000+0 0  9993
2 43706  54.1687 182.5246 0010075 291.4418 158.4113  1.86228347 51418
BEIDOU-3 M18            
1 43707U 18093B   26163.34119720  .00000125  00000+0  00000+0 0  9993
2 43707  54.1696 182.4530 0007900 320.5201  39.4855  1.86226356 51443
NAVSTAR 77 (USA 289)    
1 43873U 18109A   26165.03874880 -.00000025  00000+0  00000+0 0  9998
2 43873  55.6801  92.3112 0038151 198.0359 172.4167  2.00561343 55016
BEIDOU-3 IGSO-1         
1 44204U 19023A   26157.95428288 -.00000215  00000+0  00000+0 0  9993
2 44204  58.6799  37.7569 0025434 225.6649  92.8731  1.00294886  7105
